{
  "links" : {
    "next" : "https://api.nasa.gov/neo/rest/v1/feed?start_date=2006-04-09&end_date=2006-04-09&detailed=true&api_key=t0TVs3DtDT2H8Oy2Zy8m2eVrNsAVKAexjcZXUckd",
    "prev" : "https://api.nasa.gov/neo/rest/v1/feed?start_date=2006-04-07&end_date=2006-04-07&detailed=true&api_key=t0TVs3DtDT2H8Oy2Zy8m2eVrNsAVKAexjcZXUckd",
    "self" : "https://api.nasa.gov/neo/rest/v1/feed?start_date=2006-04-08&end_date=2006-04-08&detailed=true&api_key=t0TVs3DtDT2H8Oy2Zy8m2eVrNsAVKAexjcZXUckd"
  },
  "element_count" : 8,
  "near_earth_objects" : {
    "2006-04-08" : [ {
      "links" : {
        "self" : "https://api.nasa.gov/neo/rest/v1/neo/2388945?api_key=t0TVs3DtDT2H8Oy2Zy8m2eVrNsAVKAexjcZXUckd"
      },
      "neo_reference_id" : "2388945",
      "name" : "388945 (2008 TZ3)",
      "nasa_jpl_url" : "http://ssd.jpl.nasa.gov/sbdb.cgi?sstr=2388945",
      "absolute_magnitude_h" : 20.4,
      "estimated_diameter" : {
        "kilometers" : {
          "estimated_diameter_min" : 0.2210828104,
          "estimated_diameter_max" : 0.4943561926
        },
        "meters" : {
          "estimated_diameter_min" : 221.0828103591,
          "estimated_diameter_max" : 494.3561926196
        },
        "miles" : {
          "estimated_diameter_min" : 0.137374447,
          "estimated_diameter_max" : 0.3071786018
        },
        "feet" : {
          "estimated_diameter_min" : 725.3373275385,
          "estimated_diameter_max" : 1621.9035709942
        }
      },
      "is_potentially_hazardous_asteroid" : true,
      "close_approach_data" : [ {
        "close_approach_date" : "2006-04-08",
        "epoch_date_close_approach" : 1144479600000,
        "relative_velocity" : {
          "kilometers_per_second" : "20.5900039992",
          "kilometers_per_hour" : "74124.0143970588",
          "miles_per_hour" : "46057.7799457725"
        },
        "miss_distance" : {
          "astronomical" : "0.4260112961",
          "lunar" : "165.7183990479",
          "kilometers" : "63730384",
          "miles" : "39600224"
        },
        "orbiting_body" : "Earth"
      } ],
      "orbital_data" : {
        "orbit_id" : "82",
        "orbit_determination_date" : "2017-04-06 09:22:03",
        "orbit_uncertainty" : "0",
        "minimum_orbit_intersection" : ".017126",
        "jupiter_tisserand_invariant" : "4.279",
        "epoch_osculation" : "2458000.5",
        "eccentricity" : ".3903620492419989",
        "semi_major_axis" : "1.589760322348412",
        "inclination" : "8.80682264839607",
        "ascending_node_longitude" : "44.1956344762771",
        "orbital_period" : "732.142987758402",
        "perihelion_distance" : ".9691782251128649",
        "perihelion_argument" : "219.4069019675901",
        "aphelion_distance" : "2.210342419583958",
        "perihelion_time" : "2458277.652335800659",
        "mean_anomaly" : "223.7221928550908",
        "mean_motion" : ".4917072293517554",
        "equinox" : "J2000"
      }
    }, {
      "links" : {
        "self" : "https://api.nasa.gov/neo/rest/v1/neo/3345302?api_key=t0TVs3DtDT2H8Oy2Zy8m2eVrNsAVKAexjcZXUckd"
      },
      "neo_reference_id" : "3345302",
      "name" : "(2006 SR131)",
      "nasa_jpl_url" : "http://ssd.jpl.nasa.gov/sbdb.cgi?sstr=3345302",
      "absolute_magnitude_h" : 28.0,
      "estimated_diameter" : {
        "kilometers" : {
          "estimated_diameter_min" : 0.0066765941,
          "estimated_diameter_max" : 0.0149293183
        },
        "meters" : {
          "estimated_diameter_min" : 6.676594135,
          "estimated_diameter_max" : 14.9293183439
        },
        "miles" : {
          "estimated_diameter_min" : 0.004148642,
          "estimated_diameter_max" : 0.0092766455
        },
        "feet" : {
          "estimated_diameter_min" : 21.9048371017,
          "estimated_diameter_max" : 48.9807047955
        }
      },
      "is_potentially_hazardous_asteroid" : false,
      "close_approach_data" : [ {
        "close_approach_date" : "2006-04-08",
        "epoch_date_close_approach" : 1144479600000,
        "relative_velocity" : {
          "kilometers_per_second" : "6.556498051",
          "kilometers_per_hour" : "23603.3929834359",
          "miles_per_hour" : "14666.2304901799"
        },
        "miss_distance" : {
          "astronomical" : "0.4488958987",
          "lunar" : "174.6204986572",
          "kilometers" : "67153872",
          "miles" : "41727480"
        },
        "orbiting_body" : "Earth"
      } ],
      "orbital_data" : {
        "orbit_id" : "12",
        "orbit_determination_date" : "2017-04-06 09:08:03",
        "orbit_uncertainty" : "7",
        "minimum_orbit_intersection" : ".000818677",
        "jupiter_tisserand_invariant" : "4.808",
        "epoch_osculation" : "2458000.5",
        "eccentricity" : ".3368544935094236",
        "semi_major_axis" : "1.352041465835177",
        "inclination" : ".6316043838263935",
        "ascending_node_longitude" : "184.83608290",
        "orbital_period" : "574.2267813550271",
        "perihelion_distance" : ".8966002226575297",
        "perihelion_argument" : "121.0494363490574",
        "aphelion_distance" : "1.807482709012824",
        "perihelion_time" : "2457976.802245390506",
        "mean_anomaly" : "14.85683346096556",
        "mean_motion" : ".626930006905099",
        "equinox" : "J2000"
      }
    }, {
      "links" : {
        "self" : "https://api.nasa.gov/neo/rest/v1/neo/3471513?api_key=t0TVs3DtDT2H8Oy2Zy8m2eVrNsAVKAexjcZXUckd"
      },
      "neo_reference_id" : "3471513",
      "name" : "(2009 TC8)",
      "nasa_jpl_url" : "http://ssd.jpl.nasa.gov/sbdb.cgi?sstr=3471513",
      "absolute_magnitude_h" : 18.8,
      "estimated_diameter" : {
        "kilometers" : {
          "estimated_diameter_min" : 0.4619074603,
          "estimated_diameter_max" : 1.0328564805
        },
        "meters" : {
          "estimated_diameter_min" : 461.9074602816,
          "estimated_diameter_max" : 1032.8564805039
        },
        "miles" : {
          "estimated_diameter_min" : 0.2870159005,
          "estimated_diameter_max" : 0.6417870641
        },
        "feet" : {
          "estimated_diameter_min" : 1515.4444719902,
          "estimated_diameter_max" : 3388.6368554964
        }
      },
      "is_potentially_hazardous_asteroid" : false,
      "close_approach_data" : [ {
        "close_approach_date" : "2006-04-08",
        "epoch_date_close_approach" : 1144479600000,
        "relative_velocity" : {
          "kilometers_per_second" : "17.7871880434",
          "kilometers_per_hour" : "64033.8769563034",
          "miles_per_hour" : "39788.1609343208"
        },
        "miss_distance" : {
          "astronomical" : "0.3136551173",
          "lunar" : "122.0118408203",
          "kilometers" : "46922136",
          "miles" : "29156064"
        },
        "orbiting_body" : "Earth"
      } ],
      "orbital_data" : {
        "orbit_id" : "16",
        "orbit_determination_date" : "2017-04-06 08:59:39",
        "orbit_uncertainty" : "2",
        "minimum_orbit_intersection" : ".0537728",
        "jupiter_tisserand_invariant" : "3.598",
        "epoch_osculation" : "2458000.5",
        "eccentricity" : ".5258671099011332",
        "semi_major_axis" : "2.021912962733104",
        "inclination" : "14.9665305712599",
        "ascending_node_longitude" : "248.9529479705606",
        "orbital_period" : "1050.127693739915",
        "perihelion_distance" : ".958655436549009",
        "perihelion_argument" : "356.5778942728047",
        "aphelion_distance" : "3.085170488917199",
        "perihelion_time" : "2458058.317777973976",
        "mean_anomaly" : "340.1791723095093",
        "mean_motion" : ".3428154520122207",
        "equinox" : "J2000"
      }
    } ]
  }
}